{
    "icao": "SBGL",
    "taf":"251600Z 2518/2624 23012KT 8000 BKN020 BKN030 TN16/2609Z TX20/2615Z \n  
    TEMPO 2518/2521 23012G25KT 5000 DZ BR BKN015 BKN020 \n  TEMPO 2521/2524 25010KT 
    4000 RA BR BKN010 BKN020 \n  TEMPO 2600/2612 22008KT 3100 RA BR BKN007 BKN015 \n  
    BECMG 2612/2614 26007KT 7000 BKN016 BKN023 \n  BECMG 2618/2620 32005KT BKN017 
    RMK PGA","decoded": [
        // Ver capítulo de Decodificação do TAF
    ]
}